NORAD_CAT_ID,OBJECT_NAME,OBJECT_TYPE,EPOCH,MEAN_MOTION,ECCENTRICITY,INCLINATION,RA_OF_ASC_NODE,ARG_OF_PERICENTER,MEAN_ANOMALY,BSTAR,MEAN_MOTION_DOT,MEAN_MOTION_DDOT,TLE_LINE0,TLE_LINE1,TLE_LINE2,SEMIMAJOR_AXIS,PERIOD,APOGEE,PERIGEE,DECAYED
53732.0,STARLINK-4661,PAYLOAD,2024-07-01 04:49:57,15.08850432,0.0001188,53.216,141.7281,85.494,274.6188,0.0001362,1.881e-05,0.0,0 STARLINK-4661,1 53732U 22107AJ  24183.20136111  .00001881  00000-0  13620-3 0  9998,2 53732  53.2160 141.7281 0001188  85.4940 274.6188 15.08850432100880,6917.849,95.437,540.535,538.892,0.0
53732.0,STARLINK-4661,PAYLOAD,2024-07-01 14:22:16,15.08844345,0.0001064,53.2151,139.9419,85.2425,274.8688,0.00011586,1.557e-05,0.0,0 STARLINK-4661,1 53732U 22107AJ  24183.59880465  .00001557  00000-0  11586-3 0  9997,2 53732  53.2151 139.9419 0001064  85.2425 274.8688 15.08844345101548,6917.867,95.437,540.468,538.996,0.0
53732.0,STARLINK-4661,PAYLOAD,2024-07-01 20:43:49,15.0883361,0.0001195,53.214,138.7548,90.1469,269.966,0.00020652,3e-05,0.0,0 STARLINK-4661,1 53732U 22107AJ  24183.86377038  .00003000  00000-0  20652-3 0  9993,2 53732  53.2140 138.7548 0001195  90.1469 269.9660 15.08833610100989,6917.9,95.438,540.592,538.938,0.0
53732.0,STARLINK-4661,PAYLOAD,2024-07-02 14:13:04,15.08836552,0.0001278,53.2145,135.4823,87.3842,272.7296,6.6776e-05,7.75e-06,0.0,0 STARLINK-4661,1 53732U 22107AJ  24184.59241233  .00000775  00000-0  66776-4 0  9995,2 53732  53.2145 135.4823 0001278  87.3842 272.7296 15.08836552101693,6917.891,95.438,540.64,538.872,0.0
53732.0,STARLINK-4661,PAYLOAD,2024-07-03 02:56:09,15.08839849,0.0001246,53.2153,133.1019,92.4217,267.6918,-3.3837e-06,-3.42e-06,0.0,0 STARLINK-4661,1 53732U 22107AJ  24185.12233106 -.00000342  00000-0 -33837-5 0  9990,2 53732  53.2153 133.1019 0001246  92.4217 267.6918 15.08839849101171,6917.881,95.438,540.608,538.884,0.0
53732.0,STARLINK-4661,PAYLOAD,2024-07-03 14:03:51,15.08843922,0.0001241,53.2147,131.0211,95.3955,264.7179,2.643e-05,1.33e-06,0.0,0 STARLINK-4661,1 53732U 22107AJ  24185.58600871  .00000133  00000-0  26430-4 0  9993,2 53732  53.2147 131.0211 0001241  95.3955 264.7179 15.08843922101849,6917.868,95.437,540.592,538.875,0.0
53732.0,STARLINK-4661,PAYLOAD,2024-07-04 05:57:42,15.08848884,0.0001335,53.2152,128.047,97.4013,262.7131,0.00017573,2.511e-05,0.0,0 STARLINK-4661,1 53732U 22107AJ  24186.24840711  .00002511  00000-0  17573-3 0  9995,2 53732  53.2152 128.0470 0001335  97.4013 262.7131 15.08848884101343,6917.853,95.437,540.642,538.795,0.0
53732.0,STARLINK-4661,PAYLOAD,2024-07-05 02:37:43,15.0884513,0.0001403,53.2158,124.1818,90.9134,269.2018,0.00016501,2.34e-05,0.0,0 STARLINK-4661,1 53732U 22107AJ  24187.10952935  .00002340  00000-0  16501-3 0  9993,2 53732  53.2158 124.1818 0001403  90.9134 269.2018 15.08845130101471,6917.865,95.437,540.7,538.759,0.0
53732.0,STARLINK-4661,PAYLOAD,2024-07-05 05:48:29,15.08847261,0.0001432,53.2158,123.5871,90.7389,269.3768,0.00016776,2.383e-05,0.0,0 STARLINK-4661,1 53732U 22107AJ  24187.24200792  .00002383  00000-0  16776-3 0  9996,2 53732  53.2158 123.5871 0001432  90.7389 269.3768 15.08847261102094,6917.858,95.437,540.714,538.733,0.0
53732.0,STARLINK-4661,PAYLOAD,2024-07-06 12:00:49,15.08841476,0.0001362,53.2166,117.9398,92.2168,267.898,-2.6202e-05,-7.05e-06,0.0,0 STARLINK-4661,1 53732U 22107AJ  24188.50056893 -.00000705  00000-0 -26202-4 0  9991,2 53732  53.2166 117.9398 0001362  92.2168 267.8980 15.08841476101683,6917.876,95.437,540.683,538.799,0.0
53732.0,STARLINK-4661,PAYLOAD,2024-07-06 19:57:45,15.08835337,0.0001788,53.2161,116.4518,83.1401,276.9795,-9.5457e-05,-1.807e-05,0.0,0 STARLINK-4661,1 53732U 22107AJ  24188.83177472 -.00001807  00000-0 -95457-4 0  9996,2 53732  53.2161 116.4518 0001788  83.1401 276.9795 15.08835337102334,6917.895,95.438,540.997,538.523,0.0
53732.0,STARLINK-4661,PAYLOAD,2024-07-07 02:19:18,15.08837628,0.0001354,53.2173,115.264,85.2718,274.8429,-2.5749e-05,-6.98e-06,0.0,0 STARLINK-4661,1 53732U 22107AJ  24189.09673821 -.00000698  00000-0 -25749-4 0  9998,2 53732  53.2173 115.2640 0001354  85.2718 274.8429 15.08837628101776,6917.888,95.438,540.689,538.816,0.0
53732.0,STARLINK-4661,PAYLOAD,2024-07-08 11:42:23,15.08849019,0.0001439,53.2176,109.0203,85.8605,274.2551,0.00021737,3.174e-05,0.0,0 STARLINK-4661,1 53732U 22107AJ  24190.48777191  .00003174  00000-0  21737-3 0  9990,2 53732  53.2176 109.0203 0001439  85.8605 274.2551 15.08849019101980,6917.853,95.437,540.713,538.722,0.0
53732.0,STARLINK-4661,PAYLOAD,2024-07-08 22:50:06,15.08837845,0.0001794,53.2186,106.9383,81.7098,278.4097,6.1766e-05,6.95e-06,0.0,0 STARLINK-4661,1 53732U 22107AJ  24190.95145856  .00000695  00000-0  61766-4 0  9991,2 53732  53.2186 106.9383 0001794  81.7098 278.4097 15.08837845102651,6917.887,95.438,540.993,538.511,0.0
53732.0,STARLINK-4661,PAYLOAD,2024-07-09 03:36:15,15.0884202,0.0001425,53.2166,106.0454,80.9593,279.156,0.00014574,2.032e-05,0.0,0 STARLINK-4661,1 53732U 22107AJ  24191.15017616  .00002032  00000-0  14574-3 0  9997,2 53732  53.2166 106.0454 0001425  80.9593 279.1560 15.08842020102082,6917.874,95.437,540.725,538.753,0.0
53732.0,STARLINK-4661,PAYLOAD,2024-07-09 11:33:11,15.0883961,0.0001338,53.216,104.559,85.7493,274.3652,6.1268e-05,6.87e-06,0.0,0 STARLINK-4661,1 53732U 22107AJ  24191.48137750  .00000687  00000-0  61268-4 0  9992,2 53732  53.2160 104.5590 0001338  85.7493 274.3652 15.08839610102737,6917.882,95.438,540.672,538.821,0.0
53732.0,STARLINK-4661,PAYLOAD,2024-07-09 22:40:53,15.08834226,0.0001289,53.216,102.4739,99.2635,260.8503,-0.00014024,-2.519e-05,0.0,0 STARLINK-4661,1 53732U 22107AJ  24191.94506129 -.00002519  00000-0 -14024-3 0  9998,2 53732  53.2160 102.4739 0001289  99.2635 260.8503 15.08834226102803,6917.898,95.438,540.655,538.871,0.0
53732.0,STARLINK-4661,PAYLOAD,2024-07-10 00:16:16,15.08833955,0.0001201,53.2155,102.1769,99.3025,260.8103,-0.00013281,-2.401e-05,0.0,0 STARLINK-4661,1 53732U 22107AJ  24192.01130150 -.00002401  00000-0 -13281-3 0  9998,2 53732  53.2155 102.1769 0001201  99.3025 260.8103 15.08833955102214,6917.899,95.438,540.595,538.933,0.0
53732.0,STARLINK-4661,PAYLOAD,2024-07-10 11:23:58,15.08840923,0.0001336,53.2152,100.0967,95.783,264.3315,1.5271e-05,-4.5e-07,0.0,0 STARLINK-4661,1 53732U 22107AJ  24192.47498002 -.00000045  00000-0  15271-4 0  9994,2 53732  53.2152 100.0967 0001336  95.7830 264.3315 15.08840923102881,6917.878,95.437,540.667,538.818,0.0
53732.0,STARLINK-4661,PAYLOAD,2024-07-10 22:31:40,15.08841883,0.0001396,53.215,98.0163,88.7118,271.4034,0.00022007,3.216e-05,0.0,0 STARLINK-4661,1 53732U 22107AJ  24192.93866175  .00003216  00000-0  22007-3 0  9991,2 53732  53.2150  98.0163 0001396  88.7118 271.4034 15.08841883102951,6917.875,95.437,540.705,538.774,0.0
53732.0,STARLINK-4661,PAYLOAD,2024-07-11 03:17:49,15.08851082,0.0001385,53.2151,97.1231,95.6125,264.5025,0.00025522,3.777e-05,0.0,0 STARLINK-4661,1 53732U 22107AJ  24193.13737703  .00003777  00000-0  25522-3 0  9995,2 53732  53.2151  97.1231 0001385  95.6125 264.5025 15.08851082102383,6917.847,95.437,540.67,538.753,0.0
53732.0,STARLINK-4661,PAYLOAD,2024-07-12 03:08:36,15.08847933,0.0001559,53.2159,92.6597,111.5039,248.612,0.00021253,3.097e-05,0.0,0 STARLINK-4661,1 53732U 22107AJ  24194.13097710  .00003097  00000-0  21253-3 0  9995,2 53732  53.2159  92.6597 0001559 111.5039 248.6120 15.08847933102537,6917.856,95.437,540.8,538.643,0.0
53732.0,STARLINK-4661,PAYLOAD,2024-07-12 20:37:51,15.08840209,0.0001456,53.2155,89.388,106.8521,253.2631,0.00017705,2.531e-05,0.0,0 STARLINK-4661,1 53732U 22107AJ  24194.85961972  .00002531  00000-0  17705-3 0  9993,2 53732  53.2155  89.3880 0001456 106.8521 253.2631 15.08840209102640,6917.88,95.438,540.752,538.738,0.0
53732.0,STARLINK-4661,PAYLOAD,2024-07-12 22:13:14,15.0884192,0.000151,53.2162,89.0909,103.0337,257.0823,0.00014658,2.046e-05,0.0,0 STARLINK-4661,1 53732U 22107AJ  24194.92585855  .00002046  00000-0  14658-3 0  9998,2 53732  53.2162  89.0909 0001510 103.0337 257.0823 15.08841920103256,6917.875,95.437,540.784,538.695,0.0
53732.0,STARLINK-4661,PAYLOAD,2024-07-13 02:59:23,15.08850707,0.0001477,53.2176,88.2,103.77,256.3456,5.216e-05,5.42e-06,0.0,0 STARLINK-4661,1 53732U 22107AJ  24195.12457220  .00000542  00000-0  52160-4 0  9995,2 53732  53.2176  88.2000 0001477 103.7700 256.3456 15.08850707102680,6917.848,95.437,540.734,538.691,0.0
53732.0,STARLINK-4661,PAYLOAD,2024-07-13 20:28:38,15.08840694,0.0001432,53.2171,84.9293,116.0586,244.0553,-1.0885e-05,-4.61e-06,0.0,0 STARLINK-4661,1 53732U 22107AJ  24195.85322021 -.00000461  00000-0 -10885-4 0  9995,2 53732  53.2171  84.9293 0001432 116.0586 244.0553 15.08840694102790,6917.878,95.438,540.734,538.753,0.0
53732.0,STARLINK-4661,PAYLOAD,2024-07-13 22:04:01,15.08842553,0.0001418,53.2175,84.6332,108.7582,251.3564,-1.5362e-05,-5.32e-06,0.0,0 STARLINK-4661,1 53732U 22107AJ  24195.91945976 -.00000532  00000-0 -15362-4 0  9996,2 53732  53.2175  84.6332 0001418 108.7582 251.3564 15.08842553103401,6917.873,95.437,540.719,538.757,0.0
53732.0,STARLINK-4661,PAYLOAD,2024-07-14 09:11:42,15.08848636,0.0001361,53.2177,82.5547,96.2391,263.8756,-6.9978e-06,-3.99e-06,0.0,0 STARLINK-4661,1 53732U 22107AJ  24196.38313523 -.00000399  00000-0 -69978-5 0  9999,2 53732  53.2177  82.5547 0001361  96.2391 263.8756 15.08848636102873,6917.854,95.437,540.661,538.777,0.0
53732.0,STARLINK-4661,PAYLOAD,2024-07-14 20:19:25,15.08839388,0.0001434,53.2177,80.4743,106.2536,253.8614,-2.5174e-05,-6.89e-06,0.0,0 STARLINK-4661,1 53732U 22107AJ  24196.84681986 -.00000689  00000-0 -25174-4 0  9992,2 53732  53.2177  80.4743 0001434 106.2536 253.8614 15.08839388102946,6917.882,95.438,540.739,538.755,0.0
53732.0,STARLINK-4661,PAYLOAD,2024-07-14 21:54:48,15.08840198,0.0001448,53.2177,80.1773,107.047,253.0681,-1.1154e-05,-4.65e-06,0.0,0 STARLINK-4661,1 53732U 22107AJ  24196.91305933 -.00000465  00000-0 -11154-4 0  9990,2 53732  53.2177  80.1773 0001448 107.0470 253.0681 15.08840198103552,6917.88,95.438,540.746,538.743,0.0
